{"type": "FeatureCollection", "features": [ {"type": "Feature", "properties": {"norad_id": 66633, "name": "STARLINK-35948", "group": "last-30-days", "lat": 7.850129583443538, "lon": -125.15393656687567, "alt_km": 326.3400422603954, "timestamp": "2025-12-04T05:42:42.159707+00:00", "meta": {"OBJECT_NAME": "STARLINK-35948", "OBJECT_ID": "2025-271S", "EPOCH": "2025-12-03T22:00:03.000096", "MEAN_MOTION": 15.82606741, "ECCENTRICITY": 6.968e-05, "INCLINATION": 53.1561, "RA_OF_ASC_NODE": 230.5255, "ARG_OF_PERICENTER": 106.1227, "MEAN_ANOMALY": 232.946, "EPHEMERIS_TYPE": 0, "CLASSIFICATION_TYPE": "U", "NORAD_CAT_ID": 66633, "ELEMENT_SET_NO": 999, "REV_AT_EPOCH": 282, "BSTAR": -0.0089079656, "MEAN_MOTION_DOT": -0.01658558, "MEAN_MOTION_DDOT": 0}, "tle": {"line1": "1 66633U 25271S   25337.91670139 -.01658558  00000+0 -89080-2 0  9993", "line2": "2 66633  53.1561 230.5255 0000696 106.1227 232.9460 15.82606741  2827"}}, "geometry": {"type": "Point", "coordinates": [-125.15393656687567, 7.850129583443538]}}, {"type": "Feature", "properties": {"norad_id": 66634, "name": "STARLINK-35967", "group": "last-30-days", "lat": 9.482978210884026, "lon": -123.89722331631143, "alt_km": 326.01480511087357, "timestamp": "2025-12-04T05:42:42.159717+00:00", "meta": {"OBJECT_NAME": "STARLINK-35967", "OBJECT_ID": "2025-271T", "EPOCH": "2025-12-03T22:00:03.000096", "MEAN_MOTION": 15.82605401, "ECCENTRICITY": 5.616e-05, "INCLINATION": 53.1561, "RA_OF_ASC_NODE": 230.521, "ARG_OF_PERICENTER": 96.5732, "MEAN_ANOMALY": 244.5492, "EPHEMERIS_TYPE": 0, "CLASSIFICATION_TYPE": "U", "NORAD_CAT_ID": 66634, "ELEMENT_SET_NO": 999, "REV_AT_EPOCH": 275, "BSTAR": -0.0089096789, "MEAN_MOTION_DOT": -0.01658634, "MEAN_MOTION_DDOT": 0}, "tle": {"line1": "1 66634U 25271T   25337.91670139 -.01658634  00000+0 -89097-2 0  9997", "line2": "2 66634  53.1561 230.5210 0000561  96.5732 244.5492 15.82605401  2751"}}, "geometry": {"type": "Point", "coordinates": [-123.89722331631143, 9.482978210884026]}}, {"type": "Feature", "properties": {"norad_id": 66635, "name": "STARLINK-35955", "group": "last-30-days", "lat": 11.517465204914398, "lon": -122.30882422332238, "alt_km": 325.69349386846534, "timestamp": "2025-12-04T05:42:42.159727+00:00", "meta": {"OBJECT_NAME": "STARLINK-35955", "OBJECT_ID": "2025-271U", "EPOCH": "2025-12-03T22:00:03.000096", "MEAN_MOTION": 15.82564749, "ECCENTRICITY": 6.095e-05, "INCLINATION": 53.156, "RA_OF_ASC_NODE": 230.5156, "ARG_OF_PERICENTER": 78.5294, "MEAN_ANOMALY": 265.2125, "EPHEMERIS_TYPE": 0, "CLASSIFICATION_TYPE": "U", "NORAD_CAT_ID": 66635, "ELEMENT_SET_NO": 999, "REV_AT_EPOCH": 282, "BSTAR": -0.0090006665, "MEAN_MOTION_DOT": -0.01670516, "MEAN_MOTION_DDOT": 0}, "tle": {"line1": "1 66635U 25271U   25337.91670139 -.01670516  00000+0 -90007-2 0  9994", "line2": "2 66635  53.1560 230.5156 0000609  78.5294 265.2125 15.82564749  2826"}}, "geometry": {"type": "Point", "coordinates": [-122.30882422332238, 11.517465204914398]}}, {"type": "Feature", "properties": {"norad_id": 66636, "name": "STARLINK-35968", "group": "last-30-days", "lat": 13.097378993512612, "lon": -121.05502609705194, "alt_km": 325.4896843775705, "timestamp": "2025-12-04T05:42:42.159737+00:00", "meta": {"OBJECT_NAME": "STARLINK-35968", "OBJECT_ID": "2025-271V", "EPOCH": "2025-12-03T22:00:03.000096", "MEAN_MOTION": 15.82597654, "ECCENTRICITY": 5.633e-05, "INCLINATION": 53.156, "RA_OF_ASC_NODE": 230.5113, "ARG_OF_PERICENTER": 89.4486, "MEAN_ANOMALY": 256.2662, "EPHEMERIS_TYPE": 0, "CLASSIFICATION_TYPE": "U", "NORAD_CAT_ID": 66636, "ELEMENT_SET_NO": 999, "REV_AT_EPOCH": 282, "BSTAR": -0.0091265856, "MEAN_MOTION_DOT": -0.01692914, "MEAN_MOTION_DDOT": 0}, "tle": {"line1": "1 66636U 25271V   25337.91670139 -.01692914  00000+0 -91266-2 0  9999", "line2": "2 66636  53.1560 230.5113 0000563  89.4486 256.2662 15.82597654  2820"}}, "geometry": {"type": "Point", "coordinates": [-121.05502609705194, 13.097378993512612]}}, {"type": "Feature", "properties": {"norad_id": 66637, "name": "STARLINK-35953", "group": "last-30-days", "lat": 14.885131185505367, "lon": -119.61002860218946, "alt_km": 325.2595731980964, "timestamp": "2025-12-04T05:42:42.159746+00:00", "meta": {"OBJECT_NAME": "STARLINK-35953", "OBJECT_ID": "2025-271W", "EPOCH": "2025-12-03T22:00:03.000096", "MEAN_MOTION": 15.82561707, "ECCENTRICITY": 5.669e-05, "INCLINATION": 53.1559, "RA_OF_ASC_NODE": 230.5067, "ARG_OF_PERICENTER": 85.2066, "MEAN_ANOMALY": 262.8208, "EPHEMERIS_TYPE": 0, "CLASSIFICATION_TYPE": "U", "NORAD_CAT_ID": 66637, "ELEMENT_SET_NO": 999, "REV_AT_EPOCH": 282, "BSTAR": -0.009115226, "MEAN_MOTION_DOT": -0.01688609, "MEAN_MOTION_DDOT": 0}, "tle": {"line1": "1 66637U 25271W   25337.91670139 -.01688609  00000+0 -91152-2 0  9990", "line2": "2 66637  53.1559 230.5067 0000566  85.2066 262.8208 15.82561707  2827"}}, "geometry": {"type": "Point", "coordinates": [-119.61002860218946, 14.885131185505367]}}, {"type": "Feature", "properties": {"norad_id": 66638, "name": "STARLINK-35972", "group": "last-30-days", "lat": 16.57917999609391, "lon": -118.21168261235294, "alt_km": 325.00333238489384, "timestamp": "2025-12-04T05:42:42.159760+00:00", "meta": {"OBJECT_NAME": "STARLINK-35972", "OBJECT_ID": "2025-271X", "EPOCH": "2025-12-03T22:00:03.000096", "MEAN_MOTION": 15.82552765, "ECCENTRICITY": 5.297e-05, "INCLINATION": 53.1561, "RA_OF_ASC_NODE": 230.5022, "ARG_OF_PERICENTER": 81.4112, "MEAN_ANOMALY": 268.7932, "EPHEMERIS_TYPE": 0, "CLASSIFICATION_TYPE": "U", "NORAD_CAT_ID": 66638, "ELEMENT_SET_NO": 999, "REV_AT_EPOCH": 282, "BSTAR": -0.0091518804, "MEAN_MOTION_DOT": -0.01693808, "MEAN_MOTION_DDOT": 0}, "tle": {"line1": "1 66638U 25271X   25337.91670139 -.01693808  00000+0 -91519-2 0  9995", "line2": "2 66638  53.1561 230.5022 0000529  81.4112 268.7932 15.82552765  2824"}}, "geometry": {"type": "Point", "coordinates": [-118.21168261235294, 16.57917999609391]}}, {"type": "Feature", "properties": {"norad_id": 66639, "name": "STARLINK-35908", "group": "last-30-days", "lat": 18.245525207799663, "lon": -116.80399246237255, "alt_km": 324.80157260158467, "timestamp": "2025-12-04T05:42:42.159770+00:00", "meta": {"OBJECT_NAME": "STARLINK-35908", "OBJECT_ID": "2025-271Y", "EPOCH": "2025-12-03T22:00:03.000096", "MEAN_MOTION": 15.82551511, "ECCENTRICITY": 4.927e-05, "INCLINATION": 53.1559, "RA_OF_ASC_NODE": 230.4976, "ARG_OF_PERICENTER": 87.384, "MEAN_ANOMALY": 264.9672, "EPHEMERIS_TYPE": 0, "CLASSIFICATION_TYPE": "U", "NORAD_CAT_ID": 66639, "ELEMENT_SET_NO": 999, "REV_AT_EPOCH": 282, "BSTAR": -0.0092085459, "MEAN_MOTION_DOT": -0.01702717, "MEAN_MOTION_DDOT": 0}, "tle": {"line1": "1 66639U 25271Y   25337.91670139 -.01702717  00000+0 -92085-2 0  9995", "line2": "2 66639  53.1559 230.4976 0000492  87.3840 264.9672 15.82551511  2828"}}, "geometry": {"type": "Point", "coordinates": [-116.80399246237255, 18.245525207799663]}}, {"type": "Feature", "properties": {"norad_id": 66640, "name": "STARLINK-35921", "group": "last-30-days", "lat": 19.796573716278598, "lon": -115.46064215970083, "alt_km": 324.5694848062576, "timestamp": "2025-12-04T05:42:42.159779+00:00", "meta": {"OBJECT_NAME": "STARLINK-35921", "OBJECT_ID": "2025-271Z", "EPOCH": "2025-12-03T22:00:03.000096", "MEAN_MOTION": 15.82563914, "ECCENTRICITY": 5.158e-05, "INCLINATION": 53.156, "RA_OF_ASC_NODE": 230.4938, "ARG_OF_PERICENTER": 95.0503, "MEAN_ANOMALY": 259.296, "EPHEMERIS_TYPE": 0, "CLASSIFICATION_TYPE": "U", "NORAD_CAT_ID": 66640, "ELEMENT_SET_NO": 999, "REV_AT_EPOCH": 282, "BSTAR": -0.0092529947, "MEAN_MOTION_DOT": -0.01710672, "MEAN_MOTION_DDOT": 0}, "tle": {"line1": "1 66640U 25271Z   25337.91670139 -.01710672  00000+0 -92530-2 0  9991", "line2": "2 66640  53.1560 230.4938 0000515  95.0503 259.2960 15.82563914  2825"}}, "geometry": {"type": "Point", "coordinates": [-115.46064215970083, 19.796573716278598]}}, {"type": "Feature", "properties": {"norad_id": 66641, "name": "STARLINK-35923", "group": "last-30-days", "lat": 28.418459169864686, "lon": -107.20535587556066, "alt_km": 324.1806634106824, "timestamp": "2025-12-04T05:42:42.159789+00:00", "meta": {"OBJECT_NAME": "STARLINK-35923", "OBJECT_ID": "2025-271AA", "EPOCH": "2025-12-03T22:00:03.000096", "MEAN_MOTION": 15.82250953, "ECCENTRICITY": 6.968e-05, "INCLINATION": 53.1555, "RA_OF_ASC_NODE": 230.4685, "ARG_OF_PERICENTER": 105.9536, "MEAN_ANOMALY": 260.2374, "EPHEMERIS_TYPE": 0, "CLASSIFICATION_TYPE": "U", "NORAD_CAT_ID": 66641, "ELEMENT_SET_NO": 999, "REV_AT_EPOCH": 282, "BSTAR": -0.0098465215, "MEAN_MOTION_DOT": -0.01821096, "MEAN_MOTION_DDOT": 0}, "tle": {"line1": "1 66641U 25271AA  25337.91670139 -.01821096  00000+0 -98465-2 0  9998", "line2": "2 66641  53.1555 230.4685 0000696 105.9536 260.2374 15.82250953  2823"}}, "geometry": {"type": "Point", "coordinates": [-107.20535587556066, 28.418459169864686]}}, {"type": "Feature", "properties": {"norad_id": 66642, "name": "STARLINK-35926", "group": "last-30-days", "lat": 26.80089007829762, "lon": -108.88022123741335, "alt_km": 324.3768787880181, "timestamp": "2025-12-04T05:42:42.159801+00:00", "meta": {"OBJECT_NAME": "STARLINK-35926", "OBJECT_ID": "2025-271AB", "EPOCH": "2025-12-03T22:00:03.000096", "MEAN_MOTION": 15.82261043, "ECCENTRICITY": 5.133e-05, "INCLINATION": 53.156, "RA_OF_ASC_NODE": 230.4737, "ARG_OF_PERICENTER": 94.3526, "MEAN_ANOMALY": 269.6246, "EPHEMERIS_TYPE": 0, "CLASSIFICATION_TYPE": "U", "NORAD_CAT_ID": 66642, "ELEMENT_SET_NO": 999, "REV_AT_EPOCH": 258, "BSTAR": -0.0097900185, "MEAN_MOTION_DOT": -0.01812539, "MEAN_MOTION_DDOT": 0}, "tle": {"line1": "1 66642U 25271AB  25337.91670139 -.01812539  00000+0 -97900-2 0  9994", "line2": "2 66642  53.1560 230.4737 0000513  94.3526 269.6246 15.82261043  2582"}}, "geometry": {"type": "Point", "coordinates": [-108.88022123741335, 26.80089007829762]}}]}